ORBCOMM FM25            
1 25479U 98053E   25039.59832639  .00002614  00000+0  91165-3 0  9993
2 25479  45.0059 156.8134 0004330 291.2649  68.7736 14.37497751379232
ORBCOMM FM26            
1 25480U 98053F   25039.59838828  .00002029  00000+0  73065-3 0  9990
2 25480  45.0055 152.3822 0005360 320.4132  39.6323 14.36643641379151
ORBCOMM FM28            
1 25482U 98053H   25039.57563568  .00001963  00000+0  69293-3 0  9990
2 25482  45.0051  94.8786 0003973 337.0450  23.0220 14.37761666379841
ORBCOMM FM30            
1 25980U 99065A   25039.53312224  .00002036  00000+0  73060-3 0  9993
2 25980  45.0326 338.4775 0005874  69.4799 290.6679 14.36802287315943
ORBCOMM FM31            
1 25981U 99065B   25039.50210345  .00002033  00000+0  73015-3 0  9999
2 25981  45.0239 332.1584 0002874  87.6401 272.4776 14.36770121315492
